IRIDIUM 112             
1 41925U 17003J   25325.64197774  .00000306  00000+0  10219-3 0  9998
2 41925  86.3993 175.0218 0002129  82.8045 277.3393 14.34217248463526
IRIDIUM 111             
1 41926U 17003K   25325.62929113  .00000299  00000+0  99681-4 0  9999
2 41926  86.3997 175.0931 0001946  86.5491 273.5927 14.34215608463502
IRIDIUM 113             
1 42803U 17039A   25325.81855282  .00000347  00000+0  11682-3 0  9997
2 42803  86.3988  48.8385 0002052  91.4255 268.7176 14.34216373441462
IRIDIUM 123             
1 42804U 17039B   25325.79027366  .00000345  00000+0  11605-3 0  9992
2 42804  86.3961  80.3366 0001683  96.9943 263.1444 14.34216870440229
IRIDIUM 120             
1 42805U 17039C   25325.67268569  .00000374  00000+0  12646-3 0  9990
2 42805  86.3978  48.7089 0002141 106.3259 253.8173 14.34216464441432
IRIDIUM 115             
1 42806U 17039D   25325.68071811  .00000474  00000+0  13491-3 0  9994
2 42806  86.4517  48.8059 0001729 108.0907 252.0482 14.43279100444333
IRIDIUM 118             
1 42807U 17039E   25325.82199279  .00000354  00000+0  11937-3 0  9990
2 42807  86.3959  80.3223 0001986  90.1583 269.9841 14.34214771440226
IRIDIUM 117             
1 42808U 17039F   25325.84101470  .00000353  00000+0  11887-3 0  9992
2 42808  86.3960  80.2740 0001811  94.4576 265.6827 14.34216958440257
